FENGYUN 1C DEB          
1 30128U 99025SH  17345.53158080  .00000671  00000-0  33560-3 0  9993
2 30128  96.9817 192.3009 0173673 288.3389 101.5603 14.11525000558360
